     2.01           GLONASS NAV DATA                        RINEX VERSION / TYPE
CCRINEXG V1.4 UX    CDDIS               08-FEB-23 23:33     PGM / RUN BY / DATE 
IGS BROADCAST EPHEMERIS FILE                                COMMENT             
teqc  2020Oct7      UNAVCO Archive Ops  20230208  2:10:     COMMENT             
  2023     2     7   -0.372529029846D-08                    CORR TO SYSTEM TIME 
    18                                                      LEAP SECONDS        
                                                            END OF HEADER       
13 23  2  7  1 45  0.0-0.317506492138D-04 0.000000000000D+00 0.630000000000D+04
   -0.131055903320D+05-0.743605613708D+00 0.000000000000D+00 0.000000000000D+00
   -0.170995205078D+05-0.172118473053D+01 0.186264514923D-08-0.200000000000D+01
    0.136406479492D+05-0.286675453186D+01-0.186264514923D-08 0.000000000000D+00
14 23  2  7  1 45  0.0 0.243335962296D-04 0.000000000000D+00 0.630000000000D+04
   -0.111710820312D+05-0.104918956757D+01 0.000000000000D+00 0.000000000000D+00
    0.172805810547D+04-0.294776153565D+01 0.000000000000D+00-0.700000000000D+01
    0.228700190430D+05-0.290995597839D+00-0.279396772385D-08 0.000000000000D+00
15 23  2  7  1 45  0.0 0.912575051188D-04-0.000000000000D+00 0.540000000000D+04
   -0.271695410156D+04-0.698742866516D+00-0.000000000000D+00 0.000000000000D+00
    0.182059965820D+05-0.231493759155D+01-0.931322574616D-09 0.000000000000D+00
    0.176699765625D+05 0.227917289734D+01-0.186264514923D-08 0.000000000000D+00
16 23  2  7  1 45  0.0 0.109616667032D-04 0.909494701773D-12 0.540000000000D+04
    0.755209130859D+04 0.641050338745D-01-0.000000000000D+00 0.000000000000D+00
    0.242818671875D+05-0.340905189514D+00-0.279396772385D-08-0.100000000000D+01
    0.219116162109D+04 0.355700492859D+01-0.000000000000D+00 0.000000000000D+00
17 23  2  7  1 45  0.0 0.602620653808D-03 0.272848410532D-11 0.540000000000D+04
   -0.234504082031D+05-0.139364147186D+01-0.465661287308D-08 0.000000000000D+00
   -0.128094238281D+03-0.765790939331D-01 0.186264514923D-08 0.400000000000D+01
   -0.100639902344D+05 0.324119567871D+01-0.931322574616D-09 0.000000000000D+00
18 23  2  7  1 45  0.0 0.655408948660D-04 0.909494701773D-12 0.540000000000D+04
   -0.113223291016D+05-0.291673755646D+01-0.372529029846D-08 0.000000000000D+00
    0.747864111328D+04-0.535141944885D+00 0.000000000000D+00-0.300000000000D+01
   -0.215666459961D+05 0.134960842133D+01 0.000000000000D+00 0.000000000000D+00
19 23  2  7  1 45  0.0-0.220990739763D-03-0.909494701773D-12 0.540000000000D+04
    0.484139257812D+04-0.295716094971D+01-0.186264514923D-08 0.000000000000D+00
    0.113700195312D+05-0.796662330627D+00-0.931322574616D-09 0.300000000000D+01
   -0.223105781250D+05-0.104717254639D+01 0.186264514923D-08 0.000000000000D+00
20 23  2  7  1 45  0.0-0.872425734997D-04-0.000000000000D+00 0.540000000000D+04
    0.223166879883D+05-0.104235935211D+01 0.279396772385D-08 0.000000000000D+00
    0.924680175781D+04-0.506829261780D+00-0.186264514923D-08 0.200000000000D+01
   -0.825429101562D+04-0.337644767761D+01 0.186264514923D-08 0.000000000000D+00
21 23  2  7  1 45  0.0-0.371362082660D-03-0.272848410532D-11 0.540000000000D+04
    0.226833041992D+05 0.160368824005D+01 0.558793544769D-08 0.000000000000D+00
   -0.564664550781D+03 0.129962921143D+00-0.186264514923D-08 0.400000000000D+01
    0.116382807617D+05-0.312204551697D+01 0.931322574616D-09 0.000000000000D+00
22 23  2  7  1 45  0.0 0.699153169990D-04 0.181898940355D-11 0.630000000000D+04
    0.109217714844D+05 0.289260101318D+01 0.465661287308D-08 0.000000000000D+00
   -0.778799072266D+04 0.666071891785D+00 0.000000000000D+00-0.300000000000D+01
    0.217293940430D+05-0.121514606476D+01-0.931322574616D-09 0.000000000000D+00
23 23  2  7  1 45  0.0-0.717649236321D-04-0.909494701773D-12 0.630000000000D+04
   -0.101293022461D+05 0.270217704773D+01 0.000000000000D+00 0.000000000000D+00
   -0.115444453125D+05 0.718832969666D+00 0.931322574616D-09 0.300000000000D+01
    0.203600830078D+05 0.175236415863D+01-0.186264514923D-08 0.000000000000D+00
24 23  2  7  1 45  0.0 0.144997611642D-03 0.272848410532D-11 0.630000000000D+04
   -0.228259296875D+05 0.981678009033D+00-0.279396772385D-08 0.000000000000D+00
   -0.849168017578D+04 0.386082649231D+00 0.186264514923D-08 0.200000000000D+01
    0.762092041016D+04 0.337887382507D+01-0.186264514923D-08 0.000000000000D+00
25 23  2  7  1 45  0.0 0.537494197488D-04 0.909494701773D-12 0.543000000000D+04
    0.235359941406D+05 0.133134174347D+01 0.558793544769D-08 0.100000000000D+01
    0.126001611328D+04 0.175815582275D+00-0.186264514923D-08-0.500000000000D+01
    0.974267333984D+04-0.324284172058D+01 0.931322574616D-09 0.000000000000D+00
 1 23  2  7  2 15  0.0 0.225957483053D-04 0.000000000000D+00 0.831000000000D+04
    0.492974755859D+04 0.942147254944D+00 0.186264514923D-08 0.000000000000D+00
   -0.205591240234D+05-0.171566200256D+01 0.931322574616D-09 0.100000000000D+01
   -0.142618989258D+05 0.279890823364D+01 0.186264514923D-08 0.000000000000D+00
 2 23  2  7  2 15  0.0-0.233175233006D-04-0.000000000000D+00 0.720000000000D+04
   -0.797455419922D+04 0.176823329926D+01-0.186264514923D-08 0.000000000000D+00
   -0.745397070312D+04-0.262394714356D+01 0.186264514923D-08-0.400000000000D+01
   -0.230114609375D+05 0.230487823486D+00 0.931322574616D-09 0.000000000000D+00
 3 23  2  7  2 15  0.0 0.720508396625D-04-0.000000000000D+00 0.726000000000D+04
   -0.160816938477D+05 0.142292308807D+01-0.465661287308D-08 0.000000000000D+00
    0.925437988281D+04-0.193493556976D+01 0.931322574616D-09 0.500000000000D+01
   -0.174264184570D+05-0.233976840973D+01 0.000000000000D+00 0.000000000000D+00
 4 23  2  7  2 15  0.0 0.174828805029D-03 0.909494701773D-12 0.723000000000D+04
   -0.151294208984D+05 0.338020324707D+00-0.465661287308D-08 0.000000000000D+00
    0.203920976562D+05-0.161054611206D+00 0.000000000000D+00 0.600000000000D+01
   -0.232499414062D+04-0.356669139862D+01-0.931322574616D-09 0.000000000000D+00
 5 23  2  7  2 15  0.0 0.107344239950D-03 0.909494701773D-12 0.846000000000D+04
   -0.599683984375D+04-0.958955764771D+00-0.186264514923D-08 0.000000000000D+00
    0.204140551758D+05 0.167621517181D+01-0.931322574616D-09 0.100000000000D+01
    0.140633344727D+05-0.284699726105D+01-0.186264514923D-08 0.000000000000D+00
 6 23  2  7  2 15  0.0-0.941967591643D-04-0.181898940355D-11 0.720000000000D+04
    0.913032421875D+04-0.167680740356D+01 0.186264514923D-08 0.000000000000D+00
    0.616096142578D+04 0.266748237610D+01-0.186264514923D-08-0.400000000000D+01
    0.229996127930D+05-0.509824752808D-01-0.931322574616D-09 0.000000000000D+00
 7 23  2  7  2 15  0.0 0.494224950671D-04 0.909494701773D-12 0.810000000000D+04
    0.163113154297D+05-0.138789939880D+01 0.465661287308D-08 0.000000000000D+00
   -0.995919677734D+04 0.185327720642D+01-0.931322574616D-09 0.500000000000D+01
    0.169640546875D+05 0.242357063294D+01 0.000000000000D+00 0.000000000000D+00
 8 23  2  7  2 15  0.0-0.693351030350D-04 0.000000000000D+00 0.918000000000D+04
    0.150406186523D+05-0.314937591553D+00 0.465661287308D-08 0.000000000000D+00
   -0.205033554688D+05 0.155260086060D+00 0.000000000000D+00 0.600000000000D+01
    0.228543261719D+04 0.355514049530D+01 0.931322574616D-09 0.000000000000D+00
 9 23  2  7  2 15  0.0 0.102724879980D-03 0.272848410532D-11 0.720000000000D+04
    0.149994770508D+05 0.698957443237D+00-0.000000000000D+00 0.000000000000D+00
    0.183083740234D+05 0.111571121216D+01-0.279396772385D-08-0.200000000000D+01
   -0.959700341797D+04 0.320962333679D+01 0.931322574616D-09 0.000000000000D+00
10 23  2  7  2 15  0.0-0.903168693185D-04-0.000000000000D+00 0.720000000000D+04
    0.138265629883D+05 0.135658073425D+01-0.000000000000D+00 0.000000000000D+00
    0.499117480469D+04 0.250879955292D+01-0.931322574616D-09-0.700000000000D+01
   -0.208389521484D+05 0.150928401947D+01 0.279396772385D-08 0.000000000000D+00
11 23  2  7  2 15  0.0-0.167731195688D-05-0.454747350886D-11 0.720000000000D+04
    0.492429687500D+04 0.129251003265D+01 0.000000000000D+00 0.000000000000D+00
   -0.127813125000D+05 0.264915180206D+01 0.931322574616D-09 0.000000000000D+00
   -0.215104204102D+05-0.127889251709D+01 0.279396772385D-08 0.000000000000D+00
12 23  2  7  2 15  0.0 0.248393043876D-04 0.000000000000D+00 0.810000000000D+04
   -0.727441601562D+04 0.366875648499D+00 0.000000000000D+00 0.000000000000D+00
   -0.230971757812D+05 0.104884815216D+01 0.186264514923D-08-0.100000000000D+01
   -0.803303173828D+04-0.333839035034D+01 0.931322574616D-09 0.000000000000D+00
13 23  2  7  2 15  0.0-0.317515805364D-04 0.000000000000D+00 0.810000000000D+04
   -0.143775732422D+05-0.627239227295D+00 0.000000000000D+00 0.000000000000D+00
   -0.194798730469D+05-0.915435791016D+00 0.186264514923D-08-0.200000000000D+01
    0.801940478516D+04-0.333843898773D+01-0.931322574616D-09 0.000000000000D+00
14 23  2  7  2 15  0.0 0.243345275521D-04 0.000000000000D+00 0.810000000000D+04
   -0.133747084961D+05-0.137153339386D+01 0.000000000000D+00 0.000000000000D+00
   -0.330142089844D+04-0.259814357758D+01 0.931322574616D-09-0.700000000000D+01
    0.214692797852D+05-0.125532627106D+01-0.279396772385D-08 0.000000000000D+00
15 23  2  7  2 15  0.0 0.912575051188D-04 0.000000000000D+00 0.876000000000D+04
   -0.445255224609D+04-0.123247718811D+01 0.000000000000D+00 0.000000000000D+00
    0.137388657227D+05-0.260000991821D+01-0.931322574616D-09 0.000000000000D+00
    0.210371757812D+05 0.143793201447D+01-0.279396772385D-08 0.000000000000D+00
16 23  2  7  2 15  0.0 0.109625980258D-04 0.909494701773D-12 0.720000000000D+04
    0.729630175781D+04-0.380231857300D+00-0.000000000000D+00 0.000000000000D+00
    0.229601718750D+05-0.110073184967D+01-0.186264514923D-08-0.100000000000D+01
    0.842660937500D+04 0.332635402679D+01-0.931322574616D-09 0.000000000000D+00
